{"type":"FeatureCollection","features":[{"type":"Feature","id":"OSM_MRN_amenity_nursing_home_4326_Point.1","geometry":{"type":"Point","coordinates":[8.98820678,49.46605914]},"geometry_name":"geom","properties":{"addr:city":"Eberbach","addr:country":"DE","addr:housenumber":"9","addr:postcode":"69412","addr:street":"Schafwiesenweg","amenity":"nursing_home","building":"yes","name":"Lebensrad - Haus der Pflege","type":"multipolygon","wheelchair":"yes","osm_id":1821513,"osm_type":"relation","editlink":"https://www.openstreetmap.org/relation/1821513","tutoriallink":"https://learnosm.org/de/beginner/","operator":null,"website":null,"check_date":null,"social_facility":null,"source":null,"source:geometry":null,"source:housenumber":null,"email":null,"fax":null,"phone":null,"addr:housename":null,"building:levels":null,"roof:colour":null,"roof:shape":null,"description":null,"social_facility:for":null,"addr:suburb":null,"note":null,"operator:type":null,"wikidata":null,"opening_hours":null,"contact:email":null,"contact:fax":null,"contact:phone":null,"contact:website":null,"contact:facebook":null}},{"type":"Feature","id":"OSM_MRN_amenity_nursing_home_4326_Point.2","geometry":{"type":"Point","coordinates":[8.98643438,49.37911569]},"geometry_name":"geom","properties":{"addr:city":null,"addr:country":null,"addr:housenumber":null,"addr:postcode":null,"addr:street":null,"amenity":"nursing_home","building":"yes","name":"Haus Morgensonne","type":null,"wheelchair":null,"osm_id":27119365,"osm_type":"way","editlink":"https://www.openstreetmap.org/way/27119365","tutoriallink":"https://learnosm.org/de/beginner/","operator":null,"website":null,"check_date":null,"social_facility":null,"source":null,"source:geometry":null,"source:housenumber":null,"email":null,"fax":null,"phone":null,"addr:housename":null,"building:levels":null,"roof:colour":null,"roof:shape":null,"description":null,"social_facility:for":null,"addr:suburb":null,"note":null,"operator:type":null,"wikidata":null,"opening_hours":null,"contact:email":null,"contact:fax":null,"contact:phone":null,"contact:website":null,"contact:facebook":null}},{"type":"Feature","id":"OSM_MRN_amenity_nursing_home_4326_Point.3","geometry":{"type":"Point","coordinates":[8.26063858,49.04940361]},"geometry_name":"geom","properties":{"addr:city":"Wörth am Rhein","addr:country":"DE","addr:housenumber":"30","addr:postcode":"76744","addr:street":"Hanns-Martin-Schleyer-Straße","amenity":"nursing_home","building":"yes","name":"Pfarrer-Johann-Schiller-Haus","type":null,"wheelchair":null,"osm_id":62106229,"osm_type":"way","editlink":"https://www.openstreetmap.org/way/62106229","tutoriallink":"https://learnosm.org/de/beginner/","operator":null,"website":null,"check_date":null,"social_facility":null,"source":null,"source:geometry":null,"source:housenumber":null,"email":null,"fax":null,"phone":null,"addr:housename":null,"building:levels":null,"roof:colour":null,"roof:shape":null,"description":null,"social_facility:for":null,"addr:suburb":null,"note":null,"operator:type":null,"wikidata":null,"opening_hours":null,"contact:email":null,"contact:fax":null,"contact:phone":null,"contact:website":null,"contact:facebook":null}},{"type":"Feature","id":"OSM_MRN_amenity_nursing_home_4326_Point.4","geometry":{"type":"Point","coordinates":[8.26090284,49.36437402]},"geometry_name":"geom","properties":{"addr:city":"Haßloch","addr:country":"DE","addr:housenumber":"33","addr:postcode":"67454","addr:street":"Heinrich-Brauch-Straße","amenity":"nursing_home","building":"yes","name":"Theodor-Friedrich-Haus Alten- und Pflegeheim","type":null,"wheelchair":"yes","osm_id":111669903,"osm_type":"way","editlink":"https://www.openstreetmap.org/way/111669903","tutoriallink":"https://learnosm.org/de/beginner/","operator":"Landesverein für Innere Mission in der Pfalz e.V.","website":"http://www.lvim-pfalz.de/index.php?SiteID=6&NodeID=6&SID={SESSIONID}&Lang=DE","check_date":null,"social_facility":null,"source":null,"source:geometry":null,"source:housenumber":null,"email":null,"fax":null,"phone":null,"addr:housename":null,"building:levels":null,"roof:colour":null,"roof:shape":null,"description":null,"social_facility:for":null,"addr:suburb":null,"note":null,"operator:type":null,"wikidata":null,"opening_hours":null,"contact:email":null,"contact:fax":null,"contact:phone":null,"contact:website":null,"contact:facebook":null}},{"type":"Feature","id":"OSM_MRN_amenity_nursing_home_4326_Point.5","geometry":{"type":"Point","coordinates":[8.2876548,49.15742938]},"geometry_name":"geom","properties":{"addr:city":"Rülzheim","addr:country":"DE","addr:housenumber":"8","addr:postcode":"76761","addr:street":"Am Deutschordensplatz","amenity":"nursing_home","building":"yes","name":"Braun'sche Stiftung","type":null,"wheelchair":null,"osm_id":115880730,"osm_type":"way","editlink":"https://www.openstreetmap.org/way/115880730","tutoriallink":"https://learnosm.org/de/beginner/","operator":null,"website":null,"check_date":null,"social_facility":null,"source":null,"source:geometry":null,"source:housenumber":null,"email":null,"fax":null,"phone":null,"addr:housename":null,"building:levels":null,"roof:colour":null,"roof:shape":null,"description":null,"social_facility:for":null,"addr:suburb":null,"note":null,"operator:type":null,"wikidata":null,"opening_hours":null,"contact:email":null,"contact:fax":null,"contact:phone":null,"contact:website":null,"contact:facebook":null}},{"type":"Feature","id":"OSM_MRN_amenity_nursing_home_4326_Point.6","geometry":{"type":"Point","coordinates":[8.77615209,49.35114302]},"geometry_name":"geom","properties":{"addr:city":"Bammental","addr:country":null,"addr:housenumber":"15","addr:postcode":"69245","addr:street":"Reilsheimer Straße","amenity":"nursing_home","building":"yes","name":"Anna-Scherer-Haus","type":null,"wheelchair":"yes","osm_id":126572329,"osm_type":"way","editlink":"https://www.openstreetmap.org/way/126572329","tutoriallink":"https://learnosm.org/de/beginner/","operator":"Paritätische Sozialdienste gGmbH","website":null,"check_date":"2024-09-30","social_facility":"nursing_home","source":"survey;local knowledge","source:geometry":"HiRes aerial imagery","source:housenumber":null,"email":null,"fax":null,"phone":null,"addr:housename":null,"building:levels":null,"roof:colour":null,"roof:shape":null,"description":null,"social_facility:for":null,"addr:suburb":null,"note":null,"operator:type":null,"wikidata":null,"opening_hours":null,"contact:email":null,"contact:fax":null,"contact:phone":null,"contact:website":null,"contact:facebook":null}},{"type":"Feature","id":"OSM_MRN_amenity_nursing_home_4326_Point.7","geometry":{"type":"Point","coordinates":[8.77686026,49.35109536]},"geometry_name":"geom","properties":{"addr:city":"Bammental","addr:country":"DE","addr:housenumber":"2","addr:postcode":"69245","addr:street":"Reilsheimer Mühlweg","amenity":"nursing_home","building":"yes","name":"Anna-Scherer-Haus","type":null,"wheelchair":null,"osm_id":126572348,"osm_type":"way","editlink":"https://www.openstreetmap.org/way/126572348","tutoriallink":"https://learnosm.org/de/beginner/","operator":null,"website":null,"check_date":null,"social_facility":null,"source":"survey","source:geometry":"HiRes aerial imagery","source:housenumber":"Datenquelle: LGL, www.lgl-bw.de","email":null,"fax":null,"phone":null,"addr:housename":null,"building:levels":null,"roof:colour":null,"roof:shape":null,"description":null,"social_facility:for":null,"addr:suburb":null,"note":null,"operator:type":null,"wikidata":null,"opening_hours":null,"contact:email":null,"contact:fax":null,"contact:phone":null,"contact:website":null,"contact:facebook":null}},{"type":"Feature","id":"OSM_MRN_amenity_nursing_home_4326_Point.8","geometry":{"type":"Point","coordinates":[8.55186788,49.31878357]},"geometry_name":"geom","properties":{"addr:city":"Hockenheim","addr:country":"DE","addr:housenumber":"8","addr:postcode":"68766","addr:street":"Rathausstraße","amenity":"nursing_home","building":"yes","name":"Pflegezentrum Hockenheim","type":null,"wheelchair":"yes","osm_id":126838644,"osm_type":"way","editlink":"https://www.openstreetmap.org/way/126838644","tutoriallink":"https://learnosm.org/de/beginner/","operator":null,"website":null,"check_date":null,"social_facility":null,"source":null,"source:geometry":null,"source:housenumber":null,"email":null,"fax":null,"phone":null,"addr:housename":null,"building:levels":null,"roof:colour":null,"roof:shape":null,"description":null,"social_facility:for":null,"addr:suburb":null,"note":null,"operator:type":null,"wikidata":null,"opening_hours":null,"contact:email":null,"contact:fax":null,"contact:phone":null,"contact:website":null,"contact:facebook":null}},{"type":"Feature","id":"OSM_MRN_amenity_nursing_home_4326_Point.9","geometry":{"type":"Point","coordinates":[8.5173748,49.51176494]},"geometry_name":"geom","properties":{"addr:city":"Mannheim","addr:country":"DE","addr:housenumber":"8-10","addr:postcode":"68309","addr:street":"Unionstraße","amenity":"nursing_home","building":"yes","name":"UnionsHaus - ev. Alten- und Pflegeheim","type":null,"wheelchair":null,"osm_id":145944212,"osm_type":"way","editlink":"https://www.openstreetmap.org/way/145944212","tutoriallink":"https://learnosm.org/de/beginner/","operator":null,"website":"http://www.unionshaus.de/","check_date":"2025-04-24","social_facility":null,"source":null,"source:geometry":null,"source:housenumber":null,"email":null,"fax":null,"phone":null,"addr:housename":null,"building:levels":null,"roof:colour":null,"roof:shape":null,"description":null,"social_facility:for":null,"addr:suburb":null,"note":null,"operator:type":null,"wikidata":null,"opening_hours":null,"contact:email":null,"contact:fax":null,"contact:phone":null,"contact:website":null,"contact:facebook":null}},{"type":"Feature","id":"OSM_MRN_amenity_nursing_home_4326_Point.10","geometry":{"type":"Point","coordinates":[8.46192044,49.48986649]},"geometry_name":"geom","properties":{"addr:city":null,"addr:country":null,"addr:housenumber":null,"addr:postcode":null,"addr:street":null,"amenity":"nursing_home","building":null,"name":"Katholisches Bürgerhospital","type":null,"wheelchair":null,"osm_id":151651653,"osm_type":"way","editlink":"https://www.openstreetmap.org/way/151651653","tutoriallink":"https://learnosm.org/de/beginner/","operator":null,"website":"https://www.caritas.de/adressen/kathbuergerhospitalmannheim/86573/","check_date":null,"social_facility":null,"source":null,"source:geometry":null,"source:housenumber":null,"email":"kath.buergerhospital@online.de","fax":"+49 621 1565357","phone":"+49 621 22578","addr:housename":null,"building:levels":null,"roof:colour":null,"roof:shape":null,"description":null,"social_facility:for":null,"addr:suburb":null,"note":null,"operator:type":null,"wikidata":null,"opening_hours":null,"contact:email":null,"contact:fax":null,"contact:phone":null,"contact:website":null,"contact:facebook":null}},{"type":"Feature","id":"OSM_MRN_amenity_nursing_home_4326_Point.11","geometry":{"type":"Point","coordinates":[8.61577787,49.2660302]},"geometry_name":"geom","properties":{"addr:city":null,"addr:country":null,"addr:housenumber":null,"addr:postcode":null,"addr:street":null,"amenity":"nursing_home","building":null,"name":"Caritas-Seniorenzentrum St. Leon-Rot","type":null,"wheelchair":null,"osm_id":178354740,"osm_type":"way","editlink":"https://www.openstreetmap.org/way/178354740","tutoriallink":"https://learnosm.org/de/beginner/","operator":"Caritas","website":null,"check_date":"2025-05-10","social_facility":null,"source":null,"source:geometry":null,"source:housenumber":null,"email":null,"fax":null,"phone":null,"addr:housename":null,"building:levels":null,"roof:colour":null,"roof:shape":null,"description":null,"social_facility:for":null,"addr:suburb":null,"note":null,"operator:type":null,"wikidata":null,"opening_hours":null,"contact:email":null,"contact:fax":null,"contact:phone":null,"contact:website":null,"contact:facebook":null}},{"type":"Feature","id":"OSM_MRN_amenity_nursing_home_4326_Point.12","geometry":{"type":"Point","coordinates":[8.47160241,49.47375429]},"geometry_name":"geom","properties":{"addr:city":"Mannheim","addr:country":"DE","addr:housenumber":"83","addr:postcode":"68163","addr:street":"Lindenhofstraße","amenity":"nursing_home","building":"yes","name":"Avendi Mobil Ambulanter Pflegedienst","type":null,"wheelchair":null,"osm_id":210621725,"osm_type":"way","editlink":"https://www.openstreetmap.org/way/210621725","tutoriallink":"https://learnosm.org/de/beginner/","operator":"Avendi","website":null,"check_date":"2024-10-24","social_facility":null,"source":null,"source:geometry":null,"source:housenumber":null,"email":null,"fax":null,"phone":null,"addr:housename":"Lanzcarré","building:levels":"7","roof:colour":"#808080","roof:shape":"flat","description":null,"social_facility:for":null,"addr:suburb":null,"note":null,"operator:type":null,"wikidata":null,"opening_hours":null,"contact:email":null,"contact:fax":null,"contact:phone":null,"contact:website":null,"contact:facebook":null}},{"type":"Feature","id":"OSM_MRN_amenity_nursing_home_4326_Point.13","geometry":{"type":"Point","coordinates":[8.87382644,49.33617582]},"geometry_name":"geom","properties":{"addr:city":"Spechbach","addr:country":"DE","addr:housenumber":"1","addr:postcode":"74937","addr:street":"Wintersbrunnenhof","amenity":"nursing_home","building":"yes","name":"Haus Waldblick","type":null,"wheelchair":null,"osm_id":213548300,"osm_type":"way","editlink":"https://www.openstreetmap.org/way/213548300","tutoriallink":"https://learnosm.org/de/beginner/","operator":null,"website":"http://www.pflegeheim-spechbach.de","check_date":null,"social_facility":"group_home","source":null,"source:geometry":"Datenquelle: LGL, www.lgl-bw.de","source:housenumber":"Datenquelle: LGL, www.lgl-bw.de","email":null,"fax":null,"phone":null,"addr:housename":null,"building:levels":null,"roof:colour":null,"roof:shape":null,"description":"Alten- und Pflegeheim","social_facility:for":"senior","addr:suburb":null,"note":null,"operator:type":null,"wikidata":null,"opening_hours":null,"contact:email":null,"contact:fax":null,"contact:phone":null,"contact:website":null,"contact:facebook":null}},{"type":"Feature","id":"OSM_MRN_amenity_nursing_home_4326_Point.14","geometry":{"type":"Point","coordinates":[7.99868817,49.10350486]},"geometry_name":"geom","properties":{"addr:city":"Bad Bergzabern","addr:country":null,"addr:housenumber":"5","addr:postcode":"76887","addr:street":"Herzog-Wolfgang-Straße","amenity":"nursing_home","building":"yes","name":"Ökumenische Sozialstation-Ambulante Krankenpflege","type":null,"wheelchair":null,"osm_id":226279216,"osm_type":"way","editlink":"https://www.openstreetmap.org/way/226279216","tutoriallink":"https://learnosm.org/de/beginner/","operator":"Caritasverband für die Diözese Speyer e.V.","website":null,"check_date":null,"social_facility":null,"source":null,"source:geometry":null,"source:housenumber":null,"email":null,"fax":null,"phone":null,"addr:housename":null,"building:levels":null,"roof:colour":null,"roof:shape":null,"description":null,"social_facility:for":null,"addr:suburb":null,"note":null,"operator:type":null,"wikidata":null,"opening_hours":null,"contact:email":null,"contact:fax":null,"contact:phone":null,"contact:website":null,"contact:facebook":null}},{"type":"Feature","id":"OSM_MRN_amenity_nursing_home_4326_Point.15","geometry":{"type":"Point","coordinates":[8.49379133,49.5092998]},"geometry_name":"geom","properties":{"addr:city":"Mannheim","addr:country":"DE","addr:housenumber":"21","addr:postcode":"68167","addr:street":"Friedrich-Traumann-Straße","amenity":"nursing_home","building":"yes","name":"avendi Service-Wohnen & Pflege CentroVerde","type":null,"wheelchair":null,"osm_id":235454007,"osm_type":"way","editlink":"https://www.openstreetmap.org/way/235454007","tutoriallink":"https://learnosm.org/de/beginner/","operator":"Avendi","website":null,"check_date":null,"social_facility":null,"source":"Bing; survey","source:geometry":null,"source:housenumber":null,"email":null,"fax":null,"phone":null,"addr:housename":null,"building:levels":"4","roof:colour":null,"roof:shape":"flat","description":null,"social_facility:for":null,"addr:suburb":null,"note":null,"operator:type":null,"wikidata":null,"opening_hours":null,"contact:email":null,"contact:fax":null,"contact:phone":null,"contact:website":null,"contact:facebook":null}},{"type":"Feature","id":"OSM_MRN_amenity_nursing_home_4326_Point.16","geometry":{"type":"Point","coordinates":[8.91388787,49.29904368]},"geometry_name":"geom","properties":{"addr:city":"Waibstadt","addr:country":"DE","addr:housenumber":"62","addr:postcode":"74915","addr:street":"Lange Straße","amenity":"nursing_home","building":"yes","name":"Johanniter-Haus","type":null,"wheelchair":null,"osm_id":239847402,"osm_type":"way","editlink":"https://www.openstreetmap.org/way/239847402","tutoriallink":"https://learnosm.org/de/beginner/","operator":null,"website":"https://www.johanniter.de/einrichtungen/altenpflegeeinrichtungen/waibstadt/","check_date":"2025-06-09","social_facility":null,"source":"bing","source:geometry":null,"source:housenumber":null,"email":null,"fax":"+49 7263 6058511","phone":"+49 7263 605850","addr:housename":null,"building:levels":null,"roof:colour":null,"roof:shape":null,"description":null,"social_facility:for":"senior","addr:suburb":null,"note":null,"operator:type":null,"wikidata":null,"opening_hours":null,"contact:email":null,"contact:fax":null,"contact:phone":null,"contact:website":null,"contact:facebook":null}},{"type":"Feature","id":"OSM_MRN_amenity_nursing_home_4326_Point.17","geometry":{"type":"Point","coordinates":[8.67406673,49.28044341]},"geometry_name":"geom","properties":{"addr:city":"Wiesloch","addr:country":null,"addr:housenumber":"3","addr:postcode":"69168","addr:street":"Zeisigweg","amenity":"nursing_home","building":"yes","name":"Haus Blumeneck","type":null,"wheelchair":"yes","osm_id":867637061,"osm_type":"way","editlink":"https://www.openstreetmap.org/way/867637061","tutoriallink":"https://learnosm.org/de/beginner/","operator":"Haus Blumeneck GmbH","website":null,"check_date":null,"social_facility":"group_home","source":"https://www.rnz.de/nachrichten/wiesloch_artikel,-Wiesloch-Wiesloch-Seniorenpflegezentrum-in-Frauenweiler-feierte-Richtfest-_arid,234802.html;local knowledge","source:geometry":null,"source:housenumber":null,"email":null,"fax":null,"phone":null,"addr:housename":null,"building:levels":"1","roof:colour":null,"roof:shape":"flat","description":null,"social_facility:for":"senior","addr:suburb":"Frauenweiler","note":"Seniorenpflegezentrum, Altenpflegeheim, Tagespflege, Ergotherapiepraxis, Physiotherapiepraxis","operator:type":"business","wikidata":null,"opening_hours":null,"contact:email":null,"contact:fax":null,"contact:phone":null,"contact:website":null,"contact:facebook":null}},{"type":"Feature","id":"OSM_MRN_amenity_nursing_home_4326_Point.18","geometry":{"type":"Point","coordinates":[8.7458721,49.6068489]},"geometry_name":"geom","properties":{"addr:city":"Mörlenbach","addr:country":"DE","addr:housenumber":"17","addr:postcode":"69509","addr:street":"Groß-Breitenbach","amenity":"nursing_home","building":null,"name":"Haus Anna","type":null,"wheelchair":null,"osm_id":1751717999,"osm_type":"node","editlink":"https://www.openstreetmap.org/node/1751717999","tutoriallink":"https://learnosm.org/de/beginner/","operator":"Elke Beutler","website":"http://www.hausanna-seniorenheim.de/","check_date":null,"social_facility":null,"source":null,"source:geometry":null,"source:housenumber":null,"email":"seniorenheim_haus_anna@yahoo.de","fax":"+49-6209-3505","phone":"+49 6209 257","addr:housename":null,"building:levels":null,"roof:colour":null,"roof:shape":null,"description":null,"social_facility:for":null,"addr:suburb":null,"note":null,"operator:type":null,"wikidata":null,"opening_hours":null,"contact:email":null,"contact:fax":null,"contact:phone":null,"contact:website":null,"contact:facebook":null}},{"type":"Feature","id":"OSM_MRN_amenity_nursing_home_4326_Point.19","geometry":{"type":"Point","coordinates":[9.3644825,49.5868237]},"geometry_name":"geom","properties":{"addr:city":null,"addr:country":null,"addr:housenumber":null,"addr:postcode":null,"addr:street":null,"amenity":"nursing_home","building":null,"name":"Geriatriezentrum St. Josef","type":null,"wheelchair":null,"osm_id":1776236909,"osm_type":"node","editlink":"https://www.openstreetmap.org/node/1776236909","tutoriallink":"https://learnosm.org/de/beginner/","operator":null,"website":"https://www.khv-ha-wa.de/geriatriezentrum/","check_date":null,"social_facility":null,"source":null,"source:geometry":null,"source:housenumber":null,"email":null,"fax":null,"phone":null,"addr:housename":null,"building:levels":null,"roof:colour":null,"roof:shape":null,"description":null,"social_facility:for":null,"addr:suburb":null,"note":null,"operator:type":null,"wikidata":"Q103844379","opening_hours":null,"contact:email":null,"contact:fax":null,"contact:phone":null,"contact:website":null,"contact:facebook":null}},{"type":"Feature","id":"OSM_MRN_amenity_nursing_home_4326_Point.20","geometry":{"type":"Point","coordinates":[8.7850357,49.3934275]},"geometry_name":"geom","properties":{"addr:city":null,"addr:country":null,"addr:housenumber":null,"addr:postcode":null,"addr:street":null,"amenity":"nursing_home","building":null,"name":"Neckargemünder Hof","type":null,"wheelchair":null,"osm_id":2147483647,"osm_type":"node","editlink":"https://www.openstreetmap.org/node/2526031698","tutoriallink":"https://learnosm.org/de/beginner/","operator":null,"website":"https://www.neckargemuender-hof.de/","check_date":null,"social_facility":null,"source":null,"source:geometry":null,"source:housenumber":null,"email":null,"fax":null,"phone":null,"addr:housename":null,"building:levels":null,"roof:colour":null,"roof:shape":null,"description":null,"social_facility:for":null,"addr:suburb":null,"note":null,"operator:type":null,"wikidata":null,"opening_hours":null,"contact:email":null,"contact:fax":null,"contact:phone":null,"contact:website":null,"contact:facebook":null}},{"type":"Feature","id":"OSM_MRN_amenity_nursing_home_4326_Point.21","geometry":{"type":"Point","coordinates":[8.6530094,49.4140968]},"geometry_name":"geom","properties":{"addr:city":"Heidelberg","addr:country":null,"addr:housenumber":"4","addr:postcode":"69123","addr:street":"Ludwig-Guttmann-Straße","amenity":"nursing_home","building":null,"name":"SRH Pflege Heidelberg Junges Wohnen","type":null,"wheelchair":null,"osm_id":2147483647,"osm_type":"node","editlink":"https://www.openstreetmap.org/node/2793896116","tutoriallink":"https://learnosm.org/de/beginner/","operator":null,"website":"https://www.srh-pflege.de/","check_date":null,"social_facility":null,"source":null,"source:geometry":null,"source:housenumber":null,"email":null,"fax":null,"phone":"+49 6221 882550","addr:housename":null,"building:levels":null,"roof:colour":null,"roof:shape":null,"description":null,"social_facility:for":null,"addr:suburb":null,"note":null,"operator:type":null,"wikidata":null,"opening_hours":"24/7","contact:email":null,"contact:fax":null,"contact:phone":null,"contact:website":null,"contact:facebook":null}},{"type":"Feature","id":"OSM_MRN_amenity_nursing_home_4326_Point.22","geometry":{"type":"Point","coordinates":[8.6954505,49.3218168]},"geometry_name":"geom","properties":{"addr:city":null,"addr:country":null,"addr:housenumber":null,"addr:postcode":null,"addr:street":null,"amenity":"nursing_home","building":null,"name":"Haus Rheinblick","type":null,"wheelchair":null,"osm_id":2147483647,"osm_type":"node","editlink":"https://www.openstreetmap.org/node/3337437951","tutoriallink":"https://learnosm.org/de/beginner/","operator":null,"website":null,"check_date":"2024-08-13","social_facility":null,"source":null,"source:geometry":null,"source:housenumber":null,"email":null,"fax":null,"phone":null,"addr:housename":null,"building:levels":null,"roof:colour":null,"roof:shape":null,"description":null,"social_facility:for":null,"addr:suburb":null,"note":null,"operator:type":null,"wikidata":null,"opening_hours":null,"contact:email":null,"contact:fax":null,"contact:phone":null,"contact:website":null,"contact:facebook":null}},{"type":"Feature","id":"OSM_MRN_amenity_nursing_home_4326_Point.23","geometry":{"type":"Point","coordinates":[8.9796147,49.3692505]},"geometry_name":"geom","properties":{"addr:city":null,"addr:country":null,"addr:housenumber":null,"addr:postcode":null,"addr:street":null,"amenity":"nursing_home","building":null,"name":"SenioPlus","type":null,"wheelchair":null,"osm_id":2147483647,"osm_type":"node","editlink":"https://www.openstreetmap.org/node/5018250031","tutoriallink":"https://learnosm.org/de/beginner/","operator":null,"website":null,"check_date":null,"social_facility":null,"source":null,"source:geometry":null,"source:housenumber":null,"email":null,"fax":null,"phone":null,"addr:housename":null,"building:levels":null,"roof:colour":null,"roof:shape":null,"description":null,"social_facility:for":null,"addr:suburb":null,"note":null,"operator:type":null,"wikidata":null,"opening_hours":null,"contact:email":null,"contact:fax":null,"contact:phone":null,"contact:website":null,"contact:facebook":null}},{"type":"Feature","id":"OSM_MRN_amenity_nursing_home_4326_Point.24","geometry":{"type":"Point","coordinates":[8.4699926,49.4718113]},"geometry_name":"geom","properties":{"addr:city":"Mannheim","addr:country":null,"addr:housenumber":"71-73","addr:postcode":"68163","addr:street":"Meerfeldstraße","amenity":"nursing_home","building":null,"name":"Am Lanzgarten","type":null,"wheelchair":null,"osm_id":2147483647,"osm_type":"node","editlink":"https://www.openstreetmap.org/node/5689647349","tutoriallink":"https://learnosm.org/de/beginner/","operator":"Avendi","website":null,"check_date":"2024-12-21","social_facility":null,"source":null,"source:geometry":null,"source:housenumber":null,"email":null,"fax":null,"phone":null,"addr:housename":null,"building:levels":null,"roof:colour":null,"roof:shape":null,"description":null,"social_facility:for":null,"addr:suburb":null,"note":null,"operator:type":"private","wikidata":null,"opening_hours":null,"contact:email":null,"contact:fax":null,"contact:phone":null,"contact:website":null,"contact:facebook":null}},{"type":"Feature","id":"OSM_MRN_amenity_nursing_home_4326_Point.25","geometry":{"type":"Point","coordinates":[8.5433862,49.4896064]},"geometry_name":"geom","properties":{"addr:city":"Mannheim","addr:country":"DE","addr:housenumber":"100","addr:postcode":"68259","addr:street":"Theodor-Storm-Straße","amenity":"nursing_home","building":null,"name":"Theodor-Fliedner-Haus","type":null,"wheelchair":null,"osm_id":2147483647,"osm_type":"node","editlink":"https://www.openstreetmap.org/node/9963878581","tutoriallink":"https://learnosm.org/de/beginner/","operator":null,"website":"https://www.theodor-fliedner-haus.de/","check_date":null,"social_facility":null,"source":null,"source:geometry":null,"source:housenumber":null,"email":null,"fax":null,"phone":null,"addr:housename":null,"building:levels":null,"roof:colour":null,"roof:shape":null,"description":null,"social_facility:for":null,"addr:suburb":null,"note":null,"operator:type":null,"wikidata":null,"opening_hours":null,"contact:email":null,"contact:fax":null,"contact:phone":null,"contact:website":null,"contact:facebook":null}},{"type":"Feature","id":"OSM_MRN_amenity_nursing_home_4326_Point.26","geometry":{"type":"Point","coordinates":[8.5328203,49.4087534]},"geometry_name":"geom","properties":{"addr:city":"Brühl","addr:country":"DE","addr:housenumber":"25","addr:postcode":"68782","addr:street":"Mannheimer Landstraße","amenity":"nursing_home","building":null,"name":"B+O Seniorenzentrum Brühl","type":null,"wheelchair":"yes","osm_id":2147483647,"osm_type":"node","editlink":"https://www.openstreetmap.org/node/10313409423","tutoriallink":"https://learnosm.org/de/beginner/","operator":"Klaus Oldewurtel, Jürgen Oldewurtel","website":null,"check_date":null,"social_facility":null,"source":null,"source:geometry":null,"source:housenumber":null,"email":null,"fax":null,"phone":null,"addr:housename":null,"building:levels":null,"roof:colour":null,"roof:shape":null,"description":null,"social_facility:for":null,"addr:suburb":null,"note":null,"operator:type":null,"wikidata":null,"opening_hours":null,"contact:email":"kontakt@bo-seniorenzentrum.de","contact:fax":"+49 6202 708 111","contact:phone":"+49 6202 7080","contact:website":"https://www.bo-seniorenzentrum.de","contact:facebook":null}},{"type":"Feature","id":"OSM_MRN_amenity_nursing_home_4326_Point.27","geometry":{"type":"Point","coordinates":[8.533564,49.4084556]},"geometry_name":"geom","properties":{"addr:city":"Brühl","addr:country":"DE","addr:housenumber":"23","addr:postcode":"68782","addr:street":"Mannheimer Landstraße","amenity":"nursing_home","building":null,"name":"Seniorenwohnen Schütte-Lanz-Park","type":null,"wheelchair":"yes","osm_id":2147483647,"osm_type":"node","editlink":"https://www.openstreetmap.org/node/10313415857","tutoriallink":"https://learnosm.org/de/beginner/","operator":"Dr. Daniela Kirsch","website":null,"check_date":null,"social_facility":null,"source":null,"source:geometry":null,"source:housenumber":null,"email":null,"fax":null,"phone":null,"addr:housename":null,"building:levels":null,"roof:colour":null,"roof:shape":null,"description":null,"social_facility:for":null,"addr:suburb":null,"note":null,"operator:type":null,"wikidata":null,"opening_hours":null,"contact:email":"info@seniorenwohnen-bruehl.de","contact:fax":"+49 6202 858 899","contact:phone":"+49 6202 85809","contact:website":"https://www.seniorenwohnen-bruehl.de","contact:facebook":"https://www.facebook.com/wohnenundpflegefuersenioren"}},{"type":"Feature","id":"OSM_MRN_amenity_nursing_home_4326_Point.28","geometry":{"type":"Point","coordinates":[9.3543449,49.5191879]},"geometry_name":"geom","properties":{"addr:city":null,"addr:country":null,"addr:housenumber":null,"addr:postcode":null,"addr:street":null,"amenity":"nursing_home","building":null,"name":"GERAS Seniorenpflege","type":null,"wheelchair":null,"osm_id":2147483647,"osm_type":"node","editlink":"https://www.openstreetmap.org/node/11506113469","tutoriallink":"https://learnosm.org/de/beginner/","operator":null,"website":"https://geras-pflegeheime.de/","check_date":null,"social_facility":null,"source":null,"source:geometry":null,"source:housenumber":null,"email":null,"fax":null,"phone":null,"addr:housename":null,"building:levels":null,"roof:colour":null,"roof:shape":null,"description":null,"social_facility:for":null,"addr:suburb":null,"note":null,"operator:type":null,"wikidata":null,"opening_hours":null,"contact:email":null,"contact:fax":null,"contact:phone":null,"contact:website":null,"contact:facebook":null}}],"totalFeatures":28,"numberMatched":28,"numberReturned":28,"timeStamp":"2025-07-01T10:47:26.769Z","crs":{"type":"name","properties":{"name":"urn:ogc:def:crs:EPSG::4326"}}}